[{"OBJECT_NAME":"FLOCK 4BE-29","OBJECT_ID":"2024-149AT","EPOCH":"2026-04-25T18:56:11.860224","MEAN_MOTION":15.42394037,"ECCENTRICITY":0.0004289,"INCLINATION":97.3804,"RA_OF_ASC_NODE":200.945,"ARG_OF_PERICENTER":122.6186,"MEAN_ANOMALY":237.5475,"EPHEMERIS_TYPE":0,"CLASSIFICATION_TYPE":"U","NORAD_CAT_ID":60509,"ELEMENT_SET_NO":999,"REV_AT_EPOCH":9433,"BSTAR":0.00045063,"MEAN_MOTION_DOT":0.00019404,"MEAN_MOTION_DDOT":0},{"OBJECT_NAME":"FLOCK 4BE-2","OBJECT_ID":"2024-149AV","EPOCH":"2026-04-25T19:56:03.230016","MEAN_MOTION":15.47528529,"ECCENTRICITY":0.000484,"INCLINATION":97.3817,"RA_OF_ASC_NODE":201.8572,"ARG_OF_PERICENTER":123.6649,"MEAN_ANOMALY":236.5063,"EPHEMERIS_TYPE":0,"CLASSIFICATION_TYPE":"U","NORAD_CAT_ID":60511,"ELEMENT_SET_NO":999,"REV_AT_EPOCH":9439,"BSTAR":0.00097999,"MEAN_MOTION_DOT":0.00050565,"MEAN_MOTION_DDOT":0},{"OBJECT_NAME":"FLOCK 4BE-13","OBJECT_ID":"2024-149AW","EPOCH":"2026-04-25T18:12:21.214368","MEAN_MOTION":15.40437603,"ECCENTRICITY":0.0005585,"INCLINATION":97.3719,"RA_OF_ASC_NODE":199.684,"ARG_OF_PERICENTER":102.7225,"MEAN_ANOMALY":257.4646,"EPHEMERIS_TYPE":0,"CLASSIFICATION_TYPE":"U","NORAD_CAT_ID":60512,"ELEMENT_SET_NO":999,"REV_AT_EPOCH":9429,"BSTAR":0.00036797,"MEAN_MOTION_DOT":0.00014827,"MEAN_MOTION_DDOT":0},{"OBJECT_NAME":"FLOCK 4BE-27","OBJECT_ID":"2024-149AX","EPOCH":"2026-04-25T17:56:38.988672","MEAN_MOTION":15.33518416,"ECCENTRICITY":0.0005536,"INCLINATION":97.3825,"RA_OF_ASC_NODE":197.6113,"ARG_OF_PERICENTER":123.1706,"MEAN_ANOMALY":237.0068,"EPHEMERIS_TYPE":0,"CLASSIFICATION_TYPE":"U","NORAD_CAT_ID":60513,"ELEMENT_SET_NO":999,"REV_AT_EPOCH":9410,"BSTAR":0.00028744,"MEAN_MOTION_DOT":9.24e-5,"MEAN_MOTION_DDOT":0},{"OBJECT_NAME":"FLOCK 4BE-9","OBJECT_ID":"2024-149AY","EPOCH":"2026-04-25T18:47:16.753056","MEAN_MOTION":15.39192666,"ECCENTRICITY":0.0004499,"INCLINATION":97.3789,"RA_OF_ASC_NODE":199.6118,"ARG_OF_PERICENTER":124.3781,"MEAN_ANOMALY":235.7891,"EPHEMERIS_TYPE":0,"CLASSIFICATION_TYPE":"U","NORAD_CAT_ID":60514,"ELEMENT_SET_NO":999,"REV_AT_EPOCH":9425,"BSTAR":0.00043315,"MEAN_MOTION_DOT":0.00016769,"MEAN_MOTION_DDOT":0},{"OBJECT_NAME":"FLOCK 4BE-6","OBJECT_ID":"2024-149BA","EPOCH":"2026-04-25T16:58:52.047840","MEAN_MOTION":15.38122619,"ECCENTRICITY":0.0005226,"INCLINATION":97.379,"RA_OF_ASC_NODE":198.9876,"ARG_OF_PERICENTER":123.2243,"MEAN_ANOMALY":236.9504,"EPHEMERIS_TYPE":0,"CLASSIFICATION_TYPE":"U","NORAD_CAT_ID":60516,"ELEMENT_SET_NO":999,"REV_AT_EPOCH":9420,"BSTAR":0.00041346,"MEAN_MOTION_DOT":0.00015453,"MEAN_MOTION_DDOT":0},{"OBJECT_NAME":"FLOCK 4BE-14","OBJECT_ID":"2024-149BB","EPOCH":"2026-04-25T17:40:07.367232","MEAN_MOTION":15.39348265,"ECCENTRICITY":0.0006173,"INCLINATION":97.3695,"RA_OF_ASC_NODE":199.113,"ARG_OF_PERICENTER":122.7844,"MEAN_ANOMALY":237.3997,"EPHEMERIS_TYPE":0,"CLASSIFICATION_TYPE":"U","NORAD_CAT_ID":60517,"ELEMENT_SET_NO":999,"REV_AT_EPOCH":9425,"BSTAR":0.00042667,"MEAN_MOTION_DOT":0.00016606,"MEAN_MOTION_DDOT":0},{"OBJECT_NAME":"FLOCK 4BE-1","OBJECT_ID":"2024-149BC","EPOCH":"2026-04-25T05:16:54.808320","MEAN_MOTION":15.40815828,"ECCENTRICITY":0.000574,"INCLINATION":97.3777,"RA_OF_ASC_NODE":199.6876,"ARG_OF_PERICENTER":124.5317,"MEAN_ANOMALY":235.6472,"EPHEMERIS_TYPE":0,"CLASSIFICATION_TYPE":"U","NORAD_CAT_ID":60518,"ELEMENT_SET_NO":999,"REV_AT_EPOCH":9421,"BSTAR":0.00045681,"MEAN_MOTION_DOT":0.00018668,"MEAN_MOTION_DDOT":0},{"OBJECT_NAME":"FLOCK 4BE-28","OBJECT_ID":"2024-149BD","EPOCH":"2026-04-25T18:22:53.937120","MEAN_MOTION":15.43037933,"ECCENTRICITY":0.0005791,"INCLINATION":97.3745,"RA_OF_ASC_NODE":200.8048,"ARG_OF_PERICENTER":118.995,"MEAN_ANOMALY":241.1879,"EPHEMERIS_TYPE":0,"CLASSIFICATION_TYPE":"U","NORAD_CAT_ID":60519,"ELEMENT_SET_NO":999,"REV_AT_EPOCH":9435,"BSTAR":0.00042505,"MEAN_MOTION_DOT":0.000187,"MEAN_MOTION_DDOT":0},{"OBJECT_NAME":"FLOCK 4BE-35","OBJECT_ID":"2024-149CU","EPOCH":"2026-04-25T19:22:11.693856","MEAN_MOTION":15.54010259,"ECCENTRICITY":0.0004369,"INCLINATION":97.3708,"RA_OF_ASC_NODE":200.0632,"ARG_OF_PERICENTER":154.8801,"MEAN_ANOMALY":205.2666,"EPHEMERIS_TYPE":0,"CLASSIFICATION_TYPE":"U","NORAD_CAT_ID":60558,"ELEMENT_SET_NO":999,"REV_AT_EPOCH":9429,"BSTAR":0.0020951,"MEAN_MOTION_DOT":0.00137574,"MEAN_MOTION_DDOT":0},{"OBJECT_NAME":"FLOCK 4BE-5","OBJECT_ID":"2024-149CV","EPOCH":"2026-04-25T18:26:48.430176","MEAN_MOTION":15.38728848,"ECCENTRICITY":0.0004809,"INCLINATION":97.3841,"RA_OF_ASC_NODE":199.3276,"ARG_OF_PERICENTER":124.0729,"MEAN_ANOMALY":236.0973,"EPHEMERIS_TYPE":0,"CLASSIFICATION_TYPE":"U","NORAD_CAT_ID":60559,"ELEMENT_SET_NO":999,"REV_AT_EPOCH":9421,"BSTAR":0.00041607,"MEAN_MOTION_DOT":0.00015861,"MEAN_MOTION_DDOT":0},{"OBJECT_NAME":"FLOCK 4BE-12","OBJECT_ID":"2024-149CW","EPOCH":"2026-04-25T04:33:51.264288","MEAN_MOTION":15.59399549,"ECCENTRICITY":0.00049385,"INCLINATION":97.3666,"RA_OF_ASC_NODE":200.4253,"ARG_OF_PERICENTER":170.0019,"MEAN_ANOMALY":190.1336,"EPHEMERIS_TYPE":0,"CLASSIFICATION_TYPE":"U","NORAD_CAT_ID":60560,"ELEMENT_SET_NO":999,"REV_AT_EPOCH":9428,"BSTAR":0.0025033193,"MEAN_MOTION_DOT":0.0020227,"MEAN_MOTION_DDOT":0},{"OBJECT_NAME":"FLOCK 4BE-3","OBJECT_ID":"2024-149CX","EPOCH":"2026-04-25T19:12:27.902016","MEAN_MOTION":15.3991194,"ECCENTRICITY":0.0005908,"INCLINATION":97.3697,"RA_OF_ASC_NODE":199.2765,"ARG_OF_PERICENTER":117.714,"MEAN_ANOMALY":242.4706,"EPHEMERIS_TYPE":0,"CLASSIFICATION_TYPE":"U","NORAD_CAT_ID":60561,"ELEMENT_SET_NO":999,"REV_AT_EPOCH":9427,"BSTAR":0.00050033,"MEAN_MOTION_DOT":0.00019858,"MEAN_MOTION_DDOT":0},{"OBJECT_NAME":"FLOCK 4BE-19","OBJECT_ID":"2024-149CZ","EPOCH":"2026-04-25T19:14:02.601600","MEAN_MOTION":15.42315077,"ECCENTRICITY":0.0005755,"INCLINATION":97.3738,"RA_OF_ASC_NODE":200.5754,"ARG_OF_PERICENTER":119.4862,"MEAN_ANOMALY":240.696,"EPHEMERIS_TYPE":0,"CLASSIFICATION_TYPE":"U","NORAD_CAT_ID":60563,"ELEMENT_SET_NO":999,"REV_AT_EPOCH":9434,"BSTAR":0.00048487,"MEAN_MOTION_DOT":0.00020839,"MEAN_MOTION_DDOT":0},{"OBJECT_NAME":"FLOCK 4G-8","OBJECT_ID":"2025-009E","EPOCH":"2026-04-25T19:15:37.103328","MEAN_MOTION":15.2871117,"ECCENTRICITY":0.000564,"INCLINATION":97.4007,"RA_OF_ASC_NODE":198.0685,"ARG_OF_PERICENTER":133.2557,"MEAN_ANOMALY":226.9155,"EPHEMERIS_TYPE":0,"CLASSIFICATION_TYPE":"U","NORAD_CAT_ID":62613,"ELEMENT_SET_NO":999,"REV_AT_EPOCH":7091,"BSTAR":0.00044784,"MEAN_MOTION_DOT":0.00012439,"MEAN_MOTION_DDOT":0},{"OBJECT_NAME":"FLOCK 4G-13","OBJECT_ID":"2025-009N","EPOCH":"2026-04-25T18:09:42.069888","MEAN_MOTION":15.38058703,"ECCENTRICITY":0.000581,"INCLINATION":97.3974,"RA_OF_ASC_NODE":198.352,"ARG_OF_PERICENTER":149.4558,"MEAN_ANOMALY":210.7026,"EPHEMERIS_TYPE":0,"CLASSIFICATION_TYPE":"U","NORAD_CAT_ID":62621,"ELEMENT_SET_NO":999,"REV_AT_EPOCH":7092,"BSTAR":0.0015174,"MEAN_MOTION_DOT":0.00057127,"MEAN_MOTION_DDOT":0}]
